QIANFAN-97              
1 66039U 25233G   26025.28630241  .00000039  00000+0  42318-4 0  9993
2 66039  88.9919  57.6613 0001881  89.8964 270.2403 13.50992791 13895
QIANFAN-98              
1 66040U 25233H   26025.33511144  .00000110  00000+0  11486-3 0  9992
2 66040  88.9909  57.4126 0013684 258.2646 101.6980 13.67870427 14039
QIANFAN-99              
1 66041U 25233J   26025.29863668  .00000054  00000+0  65443-4 0  9999
2 66041  88.9920  57.6631 0001873 102.4200 257.7161 13.50992669 13891
QIANFAN-100             
1 66042U 25233K   26025.29040269  .00000045  00000+0  50806-4 0  9991
2 66042  88.9930  57.5750 0001913  89.5011 270.6359 13.50993964 13942
QIANFAN-101             
1 66043U 25233L   26025.29154661  .00000379  00000+0  15070-3 0  9997
2 66043  88.9919  57.0031 0012676 249.1293 110.8543 14.26701139 14251
QIANFAN-102             
1 66044U 25233M   26025.34392047  .00000058  00000+0  63780-4 0  9992
2 66044  88.9917  57.5795 0012972 269.8768  90.0901 13.57813082 13943
QIANFAN-103             
1 66045U 25233N   26025.31500800  .00000046  00000+0  52246-4 0  9990
2 66045  88.9920  57.6655 0001918  89.1325 271.0046 13.50987612 13893
QIANFAN-104             
1 66046U 25233P   26022.89934271 -.02108639  00000+0 -31683+1 0  9993
2 66046  88.9924  57.8174 0014249 269.5626  90.3895 13.57154121 13628
